C/2022 S5 (PANSTARRS),e,136.5016,214.8656,232.7889,20.52031,0.0106030,0.89390370,11.2512,10/24.0/2025,2000,g 15.0,4.0
# From MPEC 2024-O39
C/2022 T1 (Lemmon),h,02/17.4625/2024,22.5407,236.9118,324.2911,1.000466,3.443908,2000,9.0,4.0
# From MPC188409
C/2022 U1 (Leonard),h,03/26.1593/2024,128.1463,72.5295,78.6178,1.000457,4.202226,2000,8.5,4.0
# From MPEC 2023-VM5
C/2022 U2 (ATLAS),e,48.2524,304.3906,148.0362,98.71519,0.0010049,0.98652294,0.0000,01/14.2705/2023,2000,g 16.0,4.0
# From MPC188409
C/2022 U3 (Bok),e,33.6613,272.7871,189.1423,35621,0.0000001,0.99986448,0.0000,07/28.6778/2024,2000,g  7.5,4.0
# From MPEC 2023-W26
C/2022 U4 (Bok),e,52.0571,132.9173,88.9763,2944,0.0000062,0.99901600,0.0000,08/03.6708/2023,2000,g 10.5,4.0
# From MPEC 2024-H50
C/2022 V2 (Lemmon),e,98.9046,332.8448,168.9606,36.63731,0.0044445,0.94364598,3.2097,10/24.0/2025,2000,g 12.0,4.0
# From MPEC 2023-CD7
P/2022 W1 (Rankin),e,13.4628,38.8344,17.9496,6.976566,0.0534862,0.51636009,60.6493,10/24.0/2025,2000,g 12.5,4.0
# From MPEC 2024-EF7
C/2022 W2 (ATLAS),e,63.4966,320.4296,123.3300,342.1886,0.0001557,0.99086542,0.0000,03/08.6973/2023,2000,g 11.5,4.0
# From MPEC 2024-C04
C/2022 W3 (Leonard),e,103.5863,132.3158,116.5034,277.5857,0.0002131,0.99496996,0.0000,06/22.8713/2023,2000,g 13.0,4.0
# From MPEC 2023-M14
C/2022 Y1 (Hogan),e,18.8563,285.8726,174.9095,12.62281,0.0219771,0.76538047,23.3232,10/24.0/2025,2000,g 13.0,4.0
# From MPEC 2023-TM6
C/2022 Y2 (Lemmon),e,165.9040,216.4172,105.5390,19.76045,0.0112204,0.87133455,10.6192,10/24.0/2025,2000,g 13.5,4.0
# From MPEC 2024-GJ3
C/2023 A1 (Leonard),e,94.7449,318.2531,159.2763,221.7944,0.0002984,0.99171827,0.0000,03/18.5439/2023,2000,g 14.5,4.0
# From MPEC 2023-J95
C/2023 A2 (SWAN),e,94.7055,94.5113,142.4732,397.8347,0.0001242,0.99762670,0.0000,01/20.3681/2023,2000,g 13.5,4.0
# From MPC188410
C/2023 A3 (Tsuchinshan-ATLAS),h,09/27.7502/2024,139.1100,21.5939,308.5275,1.000145,0.391587,2000,6.5,3.2
# From MPEC 2024-F34
P/2023 B1 (PANSTARRS),e,14.5880,78.5613,81.7920,7.068191,0.0524495,0.13117563,47.3565,10/24.0/2025,2000,g  5.5,4.0
# From MPEC 2023-XP6
C/2023 B2 (ATLAS),e,40.7658,218.0740,317.3659,601.4841,0.0000668,0.99710722,0.0000,03/10.6842/2023,2000,g 14.5,4.0
# From MPEC 2023-F81
P/2023 B3 (PANSTARRS),e,9.1560,153.9787,240.4038,4.551193,0.1015117,0.12215712,190.2690,10/24.0/2025,2000,g 10.5,4.0
# From MPC188410
C/2023 C2 (ATLAS),e,48.3223,301.0058,357.4379,2081,0.0000104,0.99886189,0.0000,11/16.7517/2024,2000,g  7.0,4.0
# From MPEC 2024-D33
C/2023 E1 (ATLAS),e,38.2844,164.5320,105.9267,19.22267,0.0116945,0.94656198,9.8961,10/24.0/2025,2000,g 15.5,4.0
# From MPEC 2023-N01
C/2023 F1 (PANSTARRS),e,131.7036,25.3033,216.7338,241.8077,0.0002621,0.99292506,0.0000,06/27.9754/2023,2000,g 16.0,4.0
# From MPC186630
C/2023 F3 (ATLAS),h,02/02.6130/2025,145.9632,109.4674,265.5350,1.003088,5.190853,2000,6.0,4.0
# From MPC188410
C/2023 H1 (PANSTARRS),e,21.7834,292.6470,333.7406,745.1445,0.0000485,0.99403161,0.0000,11/28.5668/2024,2000,g  8.5,4.0
# From MPEC 2024-GJ3
C/2023 H2 (Lemmon),e,113.7415,217.0900,150.7041,249.4171,0.0002502,0.99640928,0.0000,10/29.1593/2023,2000,g 14.0,4.0
# From MPC186630
C/2023 H3 (PANSTARRS),e,2.4884,55.0873,193.2460,13.61520,0.0196186,0.61580144,12.0435,10/24.0/2025,2000,g 10.0,4.0
# From MPEC 2023-SQ0
A/2023 H4,e,76.5701,230.8266,65.0112,139.9780,0.0005951,0.98482384,0.0000,08/08.5564/2023,2000,g 18.0,2.0
# From MPC188410
C/2023 H5 (Lemmon),h,06/30.3370/2025,97.8547,159.4766,60.1086,1.000458,4.312638,2000,7.0,4.0
# From MPEC 2024-UA9
P/2023 JN16 (Lemmon),e,3.7014,11.8502,353.3545,2.697189,0.2225036,0.14723468,66.0338,10/24.0/2025,2000,g 14.0,4.0
# From MPEC 2024-GJ3
C/2023 K1 (ATLAS),e,137.9977,223.6963,337.4073,587.6229,0.0000692,0.99653067,0.0000,09/07.4692/2023,2000,g 13.0,4.0
# From MPEC 2023-N01
P/2023 M1 (PANSTARRS),e,12.2891,216.8600,79.6944,6.838886,0.0551094,0.58663311,37.4627,10/24.0/2025,2000,g 13.5,4.0
# From MPEC 2024-TD8
P/2023 M2 (PANSTARRS),e,19.7223,83.2548,243.6259,5.585271,0.0746685,0.36971820,61.1536,10/24.0/2025,2000,g 12.5,4.0
# From MPEC 2024-TP3
P/2023 M4 (ATLAS),e,7.5919,296.2794,320.4592,5.444713,0.0775785,0.27896954,100.0578,10/24.0/2025,2000,g  7.5,4.0
# From MPEC 2024-MB8
C/2023 P1 (Nishimura),e,132.4792,66.8189,116.2294,56.21266,0.0023386,0.99601274,0.0000,09/17.5884/2023,2000,g 10.0,4.0
# From MPC188410
C/2023 Q1 (PANSTARRS),h,12/01.1194/2024,36.6450,7.1238,84.4212,1.004881,2.575959,2000,10.0,4.0
# From MPEC 2024-N80
C/2023 Q2 (PANSTARRS),e,104.0621,92.6801,171.6767,338.2972,0.0001584,0.99051530,0.0000,06/23.8871/2024,2000,g 11.5,4.0
# From MPC188410
C/2023 R1 (PANSTARRS),h,04/13.4278/2026,149.3165,62.5653,144.2669,1.002382,3.569977,2000,6.0,4.0
# From MPEC 2024-L77
C/2023 R2 (PANSTARRS),h,08/12.1814/2024,30.6915,188.8853,337.3221,1.000310,0.904932,2000,10.5,4.0
# From MPEC 2023-UR6
A/2023 R3,e,12.0779,347.3320,86.9683,737.7793,0.0000492,0.99815754,0.0000,12/18.1628/2023,2000,g 20.0,2.0
# From MPC188410
C/2023 RN3 (ATLAS),e,10.3512,207.0630,130.6324,10.16596,0.0304075,0.49025554,30.6369,10/24.0/2025,2000,g  7.5,4.0
# From MPC188410
C/2023 RS61 (PANSTARRS),e,19.9460,347.0271,119.4588,11.89820,0.0240150,0.32796083,332.7409,10/24.0/2025,2000,g  6.8,4.0
# From MPC188410
P/2023 S1 (PANSTARRS),e,9.1576,317.2891,180.3225,3.844132,0.1307695,0.31848417,31.6161,10/24.0/2025,2000,g 11.5,4.0
# From MPEC 2023-XP6
C/2023 S2 (ATLAS),e,19.6399,229.4286,78.9858,159.8490,0.0004877,0.99335385,0.0000,10/15.0659/2023,2000,g 15.0,4.0
# From MPEC 2024-P23
C/2023 S3 (Lemmon),e,140.4907,233.8150,281.5115,28.38802,0.0065163,0.97080255,0.0000,01/19.6551/2024,2000,g 16.0,4.0
# From MPEC 2024-BE0
P/2023 T1 (PANSTARRS),e,6.6123,249.5767,202.8835,4.226118,0.1134466,0.33318443,58.8891,10/24.0/2025,2000,g 14.0,4.0
# From MPEC 2024-GJ3
C/2023 T2 (Borisov),e,48.5870,317.5219,111.2283,223.2835,0.0002954,0.99105702,0.0000,12/22.7076/2023,2000,g 14.5,4.0
# From MPC188410
C/2023 T3 (Fuls),e,27.2205,246.0023,302.8494,905.1482,0.0000362,0.99607986,0.0000,01/25.3786/2025,2000,g  8.5,4.0
# From MPC186630
C/2023 TD22 (Lemmon),e,170.4893,5.5704,32.5415,48.38563,0.0029284,0.95129924,1.1792,10/24.0/2025,2000,g 12.5,4.0
# From MPC188410
C/2023 U1 (Fuls),e,108.1470,305.8012,255.6549,3016,0.0000060,0.99835081,0.0000,10/13.0273/2024,2000,g  8.0,4.0
# From MPC188411
C/2023 V1 (Lemmon),h,07/13.0550/2025,102.0122,15.0471,103.3174,1.000461,5.092586,2000,8.5,4.0
# From MPC184411
P/2023 V2 (PANSTARRS),e,9.8883,95.4733,330.5172,7.217815,0.0508271,0.56989439,31.9400,10/24.0/2025,2000,g 13.5,4.0
# From MPEC 2024-A43
C/2023 V3 (PANSTARRS),e,40.6659,91.2838,291.8107,12.74902,0.0216515,0.64753317,17.6231,10/24.0/2025,2000,g 11.5,4.0
# From MPC185658
C/2023 V4 (Camarasa-Duszanowicz),h,05/30.4168/2024,67.1202,66.3271,50.8754,1.001228,1.121972,2000,12.0,4.0
# From MPEC 2024-GJ3
C/2023 V5 (Leonard),h,12/13.9258/2023,73.5330,31.5100,56.9728,1.009450,0.846350,2000,21.5,4.0
# From MPEC 2025-A40
P/2023 V6 (PANSTARRS),e,3.9753,189.5462,192.0680,5.286343,0.0810907,0.17528067,86.0846,10/24.0/2025,2000,g 11.5,4.0
# From MPEC 2024-GJ3
C/2023 X1 (Leonard),e,110.5909,136.9787,321.4733,155.4332,0.0005086,0.99387792,0.0000,10/17.9125/2023,2000,g 13.5,3.2
# From MPC188411
C/2023 X2 (Lemmon),h,12/28.3393/2025,76.9805,66.3010,64.7853,1.000031,5.088563,2000,8.5,3.2
# From MPEC 2024-A43
P/2023 X3 (PANSTARRS),e,4.4832,62.0152,40.8970,4.246450,0.1126328,0.28617749,61.9181,10/24.0/2025,2000,g 15.5,4.0
# From MPC184411
C/2023 X4 (Hogan),e,11.5925,28.7706,100.6086,9.926479,0.0315146,0.63140617,16.2879,10/24.0/2025,2000,g 12.0,4.0
# From MPEC 2024-DA2
C/2023 X7 (PANSTARRS),h,05/15.2203/2025,69.1175,119.2015,354.4044,1.001078,4.820420,2000,9.0,4.0
# From MPEC 2024-JU4
P/2023 Y1 (Gibbs),e,6.3837,78.8558,51.4895,3.750714,0.1356854,0.44541352,94.1659,10/24.0/2025,2000,g 17.0,4.0
# From MPEC 2025-A40
P/2023 Y2 (Gibbs),e,6.9924,79.2297,16.9233,3.747836,0.1358418,0.39223816,109.4658,10/24.0/2025,2000,g 15.5,4.0
# From MPC188411
C/2024 A1 (ATLAS),h,06/13.3386/2025,94.5003,112.1384,353.2470,1.001763,3.874828,2000,7.0,4.0
# From MPC182881
C/2024 A2 (ATLAS),e,119.1139,78.1646,295.4886,32.18328,0.0053983,0.94160010,2.9327,10/24.0/2025,2000,g 12.5,4.0
# From MPC188411
C/2024 B1 (Lemmon),h,10/07.7416/2024,70.9015,79.1884,66.2220,1.001111,1.633843,2000,13.0,4.0
# From MPEC 2025-A40
C/2024 B2 (Lemmon),e,99.8729,294.3879,130.3230,1468,0.0000175,0.99722224,0.0000,10/05.5818/2023,2000,g 11.5,4.0
# From MPC185658
C/2024 C1 (PANSTARRS),e,14.2267,83.8099,94.4975,10.58838,0.0286062,0.58322875,11.9814,10/24.0/2025,2000,g 11.5,4.0
# From MPEC 2024-JU4
C/2024 C2 (PANSTARRS),e,27.2843,66.4486,87.5965,16.23901,0.0150614,0.44630067,3.4065,10/24.0/2025,2000,g  6.0,4.0
# From MPC184412
C/2024 C3 (PANSTARRS),e,22.4516,359.7027,159.7170,11.67429,0.0247092,0.42494297,17.6630,10/24.0/2025,2000,g  9.0,4.0
# From MPEC 2024-Q20
C/2024 C4 (ATLAS),e,79.2822,220.6614,321.4898,83.24659,0.0012976,0.98234024,0.0000,01/30.1947/2024,2000,g 14.5,4.0
# From MPC185658
C/2024 D1 (Lemmon),e,132.4487,179.6571,125.7878,12590,0.0000007,0.99946847,0.0000,12/03.4655/2027,2000,g  7.3,4.0
# From MPC188411
C/2024 E1 (Wierzchos),h,01/20.7673/2026,75.2399,108.0793,243.6275,1.000078,0.566083,2000,7.0,4.0
# From MPEC 2024-JU4
C/2024 E2 (Bok),e,155.6520,135.6582,358.1747,51.33249,0.0026799,0.85005945,1.9549,10/24.0/2025,2000,g  8.0,4.0
# From MPEC 2024-JU4
P/2024 F1 (PANSTARRS),e,7.0049,251.5405,229.5877,3.444274,0.1541905,0.46001748,112.4274,10/24.0/2025,2000,g 16.0,4.0
# From MPC188411
C/2024 F2 (PANSTARRS),e,13.7439,138.9390,112.8864,9.945903,0.0314223,0.60109588,14.2041,10/24.0/2025,2000,g 11.0,4.0
# From MPEC 2024-UA9
P/2024 FG9 (Nanshan-Hahn),e,1.7312,253.0416,245.9400,3.257853,0.1676127,0.50997493,87.4188,10/24.0/2025,2000,g 14.0,4.0
# From MPC184412
C/2024 G1 (Wierzchos),e,95.3890,30.6054,128.2219,122.2378,0.0007293,0.96784909,0.2683,10/24.0/2025,2000,g 10.0,4.0
# From MPC186631
C/2024 G2 (ATLAS),e,122.1219,171.3986,328.7416,715.0269,0.0000515,0.99252018,0.0000,06/13.5587/2025,2000,g  7.0,4.0
